start=new Date('2022-11-24T00:00:00.000Z').valueOf();
sats=[{"APOAPSIS":"352.407","TLE_LINE1":"1 53936U 22119BC  22327.91667824  .00041188  00000-0  29638-3 0  9993","MEAN_ELEMENT_THEORY":"SGP4","SITE":"AFETR","ELEMENT_SET_NO":"999","PERIAPSIS":"347.122","NORAD_CAT_ID":"53936","RCS_SIZE":"LARGE","BSTAR":"0.00029638000000","COUNTRY_CODE":"US","LAUNCH_DATE":"2022-09-24","INCLINATION":"53.2147","ARG_OF_PERICENTER":"1.0316","REV_AT_EPOCH":"987","DECAY_DATE":null,"CENTER_NAME":"EARTH","MEAN_MOTION_DDOT":"0.0000000000000","PERIOD":"91.533","OBJECT_ID":"2022-119BC","ECCENTRICITY":"0.00039280","MEAN_ANOMALY":"105.9938","TIME_SYSTEM":"UTC","OBJECT_NAME":"STARLINK-4791","OBJECT_TYPE":"PAYLOAD","FILE":"3668208","CLASSIFICATION_TYPE":"U","REF_FRAME":"TEME","RA_OF_ASC_NODE":"316.2742","GP_ID":"218574579","EPHEMERIS_TYPE":"0","MEAN_MOTION_DOT":"0.00041188","MEAN_MOTION":"15.73198399","EPOCH":"2022-11-23T22:00:00.999936","SEMIMAJOR_AXIS":"6727.900","TLE_LINE2":"2 53936  53.2147 316.2742 0003928   1.0316 105.9938 15.73198399  9872"},{"PERIAPSIS":"347.189","ELEMENT_SET_NO":"999","MEAN_ELEMENT_THEORY":"SGP4","TLE_LINE1":"1 53937U 22119BD  22327.91667824  .00054557  00000-0  39059-3 0  9996","APOAPSIS":"352.360","SITE":"AFETR","LAUNCH_DATE":"2022-09-24","INCLINATION":"53.2133","ARG_OF_PERICENTER":"359.7117","BSTAR":"0.00039059000000","COUNTRY_CODE":"US","NORAD_CAT_ID":"53937","RCS_SIZE":"LARGE","OBJECT_ID":"2022-119BD","ECCENTRICITY":"0.00038430","MEAN_ANOMALY":"108.5427","TIME_SYSTEM":"UTC","OBJECT_NAME":"STARLINK-4765","PERIOD":"91.533","DECAY_DATE":null,"CENTER_NAME":"EARTH","MEAN_MOTION_DDOT":"0.0000000000000","REV_AT_EPOCH":"130","SEMIMAJOR_AXIS":"6727.910","TLE_LINE2":"2 53937  53.2133 316.2706 0003843 359.7117 108.5427 15.73194967  1305","MEAN_MOTION_DOT":"0.00054557","MEAN_MOTION":"15.73194967","EPOCH":"2022-11-23T22:00:00.999936","FILE":"3668355","CLASSIFICATION_TYPE":"U","REF_FRAME":"TEME","EPHEMERIS_TYPE":"0","GP_ID":"218603970","RA_OF_ASC_NODE":"316.2706","OBJECT_TYPE":"PAYLOAD"},{"PERIAPSIS":"538.460","ELEMENT_SET_NO":"999","SITE":"AFWTR","MEAN_ELEMENT_THEORY":"SGP4","TLE_LINE1":"1 53964U 22125A   22327.91667824 -.00018428  00000-0 -11429-2 0  9992","APOAPSIS":"541.071","INCLINATION":"53.2161","ARG_OF_PERICENTER":"43.0219","LAUNCH_DATE":"2022-10-05","COUNTRY_CODE":"US","BSTAR":"-0.00114290000000","NORAD_CAT_ID":"53964","RCS_SIZE":"LARGE","MEAN_ANOMALY":"295.6775","ECCENTRICITY":"0.00018870","OBJECT_NAME":"STARLINK-4633","TIME_SYSTEM":"UTC","OBJECT_ID":"2022-125A","PERIOD":"95.438","DECAY_DATE":null,"CENTER_NAME":"EARTH","MEAN_MOTION_DDOT":"0.0000000000000","REV_AT_EPOCH":"130","SEMIMAJOR_AXIS":"6917.901","TLE_LINE2":"2 53964  53.2161 219.2441 0001887  43.0219 295.6775 15.08833417  1308","EPOCH":"2022-11-23T22:00:00.999936","MEAN_MOTION_DOT":"-0.00018428","MEAN_MOTION":"15.08833417","REF_FRAME":"TEME","RA_OF_ASC_NODE":"219.2441","GP_ID":"218603972","EPHEMERIS_TYPE":"0","FILE":"3668355","CLASSIFICATION_TYPE":"U","OBJECT_TYPE":"PAYLOAD"},{"SITE":"AFWTR","TLE_LINE1":"1 53965U 22125B   22327.91667824 -.00019470  00000-0 -12087-2 0  9992","MEAN_ELEMENT_THEORY":"SGP4","APOAPSIS":"541.118","ELEMENT_SET_NO":"999","PERIAPSIS":"538.412","RCS_SIZE":"LARGE","NORAD_CAT_ID":"53965","COUNTRY_CODE":"US","BSTAR":"-0.00120870000000","ARG_OF_PERICENTER":"48.9891","INCLINATION":"53.2164","LAUNCH_DATE":"2022-10-05","REV_AT_EPOCH":"130","MEAN_MOTION_DDOT":"0.0000000000000","CENTER_NAME":"EARTH","DECAY_DATE":null,"PERIOD":"95.438","OBJECT_NAME":"STARLINK-4578","TIME_SYSTEM":"UTC","ECCENTRICITY":"0.00019560","MEAN_ANOMALY":"309.7396","OBJECT_ID":"2022-125B","OBJECT_TYPE":"PAYLOAD","EPHEMERIS_TYPE":"0","GP_ID":"218603489","RA_OF_ASC_NODE":"219.2056","REF_FRAME":"TEME","CLASSIFICATION_TYPE":"U","FILE":"3668355","EPOCH":"2022-11-23T22:00:00.999936","MEAN_MOTION_DOT":"-0.00019470","MEAN_MOTION":"15.08833603","TLE_LINE2":"2 53965  53.2164 219.2056 0001956  48.9891 309.7396 15.08833603  1304","SEMIMAJOR_AXIS":"6917.900"},{"REV_AT_EPOCH":"130","DECAY_DATE":null,"CENTER_NAME":"EARTH","MEAN_MOTION_DDOT":"0.0000000000000","PERIOD":"95.437","MEAN_ANOMALY":"329.3995","ECCENTRICITY":"0.00020600","TIME_SYSTEM":"UTC","OBJECT_NAME":"STARLINK-4635","OBJECT_ID":"2022-125C","OBJECT_TYPE":"PAYLOAD","REF_FRAME":"TEME","EPHEMERIS_TYPE":"0","GP_ID":"218603653","RA_OF_ASC_NODE":"219.1662","FILE":"3668355","CLASSIFICATION_TYPE":"U","EPOCH":"2022-11-23T22:00:00.999936","MEAN_MOTION_DOT":"-0.00020291","MEAN_MOTION":"15.08849061","SEMIMAJOR_AXIS":"6917.853","TLE_LINE2":"2 53966  53.2160 219.1662 0002060  49.3518 329.3995 15.08849061  1309","SITE":"AFWTR","TLE_LINE1":"1 53966U 22125C   22327.91667824 -.00020291  00000-0 -12600-2 0  9997","APOAPSIS":"541.143","MEAN_ELEMENT_THEORY":"SGP4","PERIAPSIS":"538.293","ELEMENT_SET_NO":"999","NORAD_CAT_ID":"53966","RCS_SIZE":"LARGE","COUNTRY_CODE":"US","BSTAR":"-0.00126000000000","INCLINATION":"53.2160","ARG_OF_PERICENTER":"49.3518","LAUNCH_DATE":"2022-10-05"},{"OBJECT_TYPE":"PAYLOAD","FILE":"3668355","CLASSIFICATION_TYPE":"U","REF_FRAME":"TEME","GP_ID":"218603817","RA_OF_ASC_NODE":"219.1259","EPHEMERIS_TYPE":"0","MEAN_MOTION":"15.08850704","MEAN_MOTION_DOT":"-0.00020418","EPOCH":"2022-11-23T22:00:00.999936","SEMIMAJOR_AXIS":"6917.848","TLE_LINE2":"2 53967  53.2144 219.1259 0001986  46.5884 352.1827 15.08850704  1309","REV_AT_EPOCH":"130","DECAY_DATE":null,"CENTER_NAME":"EARTH","MEAN_MOTION_DDOT":"0.0000000000000","PERIOD":"95.437","OBJECT_ID":"2022-125D","MEAN_ANOMALY":"352.1827","ECCENTRICITY":"0.00019860","TIME_SYSTEM":"UTC","OBJECT_NAME":"STARLINK-4634","NORAD_CAT_ID":"53967","RCS_SIZE":"LARGE","BSTAR":"-0.00126800000000","COUNTRY_CODE":"US","LAUNCH_DATE":"2022-10-05","INCLINATION":"53.2144","ARG_OF_PERICENTER":"46.5884","MEAN_ELEMENT_THEORY":"SGP4","TLE_LINE1":"1 53967U 22125D   22327.91667824 -.00020418  00000-0 -12680-2 0  9997","APOAPSIS":"541.087","SITE":"AFWTR","ELEMENT_SET_NO":"999","PERIAPSIS":"538.339"},{"SITE":"AFWTR","MEAN_ELEMENT_THEORY":"SGP4","TLE_LINE1":"1 53968U 22125E   22327.91667824 -.00021329  00000-0 -13261-2 0  9996","APOAPSIS":"540.900","ELEMENT_SET_NO":"999","PERIAPSIS":"538.613","NORAD_CAT_ID":"53968","RCS_SIZE":"LARGE","INCLINATION":"53.2137","ARG_OF_PERICENTER":"62.9663","LAUNCH_DATE":"2022-10-05","COUNTRY_CODE":"US","BSTAR":"-0.00132610000000","CENTER_NAME":"EARTH","DECAY_DATE":null,"MEAN_MOTION_DDOT":"0.0000000000000","REV_AT_EPOCH":"130","MEAN_ANOMALY":"35.8602","ECCENTRICITY":"0.00016530","TIME_SYSTEM":"UTC","OBJECT_NAME":"STARLINK-4629","OBJECT_ID":"2022-125E","PERIOD":"95.438","REF_FRAME":"TEME","GP_ID":"218604292","EPHEMERIS_TYPE":"0","RA_OF_ASC_NODE":"219.0061","FILE":"3668355","CLASSIFICATION_TYPE":"U","OBJECT_TYPE":"PAYLOAD","SEMIMAJOR_AXIS":"6917.891","TLE_LINE2":"2 53968  53.2137 219.0061 0001653  62.9663  35.8602 15.08836465  1304","EPOCH":"2022-11-23T22:00:00.999936","MEAN_MOTION_DOT":"-0.00021329","MEAN_MOTION":"15.08836465"},{"SITE":"AFWTR","TLE_LINE1":"1 53969U 22125F   22327.91667824 -.00021158  00000-0 -13148-2 0  9991","APOAPSIS":"541.049","MEAN_ELEMENT_THEORY":"SGP4","ELEMENT_SET_NO":"999","PERIAPSIS":"538.388","NORAD_CAT_ID":"53969","RCS_SIZE":"LARGE","INCLINATION":"53.2138","ARG_OF_PERICENTER":"48.4095","LAUNCH_DATE":"2022-10-05","COUNTRY_CODE":"US","BSTAR":"-0.00131480000000","CENTER_NAME":"EARTH","DECAY_DATE":null,"MEAN_MOTION_DDOT":"0.0000000000000","REV_AT_EPOCH":"130","ECCENTRICITY":"0.00019230","MEAN_ANOMALY":"10.4019","TIME_SYSTEM":"UTC","OBJECT_NAME":"STARLINK-4468","OBJECT_ID":"2022-125F","PERIOD":"95.437","REF_FRAME":"TEME","RA_OF_ASC_NODE":"219.0857","GP_ID":"218603156","EPHEMERIS_TYPE":"0","FILE":"3668355","CLASSIFICATION_TYPE":"U","OBJECT_TYPE":"PAYLOAD","SEMIMAJOR_AXIS":"6917.853","TLE_LINE2":"2 53969  53.2138 219.0857 0001923  48.4095  10.4019 15.08848811  1306","EPOCH":"2022-11-23T22:00:00.999936","MEAN_MOTION":"15.08848811","MEAN_MOTION_DOT":"-0.00021158"},{"COUNTRY_CODE":"US","BSTAR":"-0.06876400000000","ARG_OF_PERICENTER":"89.9097","INCLINATION":"53.2170","LAUNCH_DATE":"2022-10-05","RCS_SIZE":"LARGE","NORAD_CAT_ID":"53970","PERIAPSIS":"521.532","ELEMENT_SET_NO":"999","SITE":"AFWTR","TLE_LINE1":"1 53970U 22125G   22327.91667824 -.01177410  00000-0 -68764-1 0  9990","MEAN_ELEMENT_THEORY":"SGP4","APOAPSIS":"523.481","EPOCH":"2022-11-23T22:00:00.999936","MEAN_MOTION_DOT":"-0.01177410","MEAN_MOTION":"15.14497489","TLE_LINE2":"2 53970  53.2170 214.5274 0001412  89.9097 107.4363 15.14497489  1309","SEMIMAJOR_AXIS":"6900.642","OBJECT_TYPE":"PAYLOAD","GP_ID":"218603319","EPHEMERIS_TYPE":"0","RA_OF_ASC_NODE":"214.5274","REF_FRAME":"TEME","CLASSIFICATION_TYPE":"U","FILE":"3668355","PERIOD":"95.081","TIME_SYSTEM":"UTC","OBJECT_NAME":"STARLINK-4567","MEAN_ANOMALY":"107.4363","ECCENTRICITY":"0.00014120","OBJECT_ID":"2022-125G","REV_AT_EPOCH":"130","MEAN_MOTION_DDOT":"0.0000000000000","DECAY_DATE":null,"CENTER_NAME":"EARTH"},{"REV_AT_EPOCH":"130","CENTER_NAME":"EARTH","DECAY_DATE":null,"MEAN_MOTION_DDOT":"0.0000000000000","PERIOD":"95.438","ECCENTRICITY":"0.00019530","MEAN_ANOMALY":"32.8102","TIME_SYSTEM":"UTC","OBJECT_NAME":"STARLINK-4639","OBJECT_ID":"2022-125H","OBJECT_TYPE":"PAYLOAD","REF_FRAME":"TEME","EPHEMERIS_TYPE":"0","GP_ID":"218604136","RA_OF_ASC_NODE":"219.0463","FILE":"3668355","CLASSIFICATION_TYPE":"U","EPOCH":"2022-11-23T22:00:00.999936","MEAN_MOTION_DOT":"-0.00021690","MEAN_MOTION":"15.08830318","SEMIMAJOR_AXIS":"6917.910","TLE_LINE2":"2 53971  53.2136 219.0463 0001953  46.0104  32.8102 15.08830318  1302","SITE":"AFWTR","MEAN_ELEMENT_THEORY":"SGP4","TLE_LINE1":"1 53971U 22125H   22327.91667824 -.00021690  00000-0 -13491-2 0  9996","APOAPSIS":"541.126","PERIAPSIS":"538.424","ELEMENT_SET_NO":"999","NORAD_CAT_ID":"53971","RCS_SIZE":"LARGE","COUNTRY_CODE":"US","BSTAR":"-0.00134910000000","INCLINATION":"53.2136","ARG_OF_PERICENTER":"46.0104","LAUNCH_DATE":"2022-10-05"}];
